STARLINK-5878           
1 55955U 23037AT  25338.63281113  .00000889  00000+0  82284-4 0  9992
2 55955  69.9993 144.1657 0003464 271.9001  88.1761 14.98333559150233
STARLINK-5883           
1 55956U 23037AU  25338.60776240  .00001624  00000+0  14384-3 0  9993
2 55956  69.9990 144.0786 0003147 274.3643  85.7156 14.98336622150235
STARLINK-5884           
1 55957U 23037AV  25338.63698339  .00000486  00000+0  48542-4 0  9998
2 55957  69.9990 144.1801 0002987 273.3511  86.7306 14.98330073150231
STARLINK-5928           
1 55958U 23037AW  25338.62863799  .00000123  00000+0  18136-4 0  9996
2 55958  69.9991 144.1514 0003030 271.5784  88.5028 14.98331929150238
STARLINK-5929           
1 55959U 23037AX  25338.62446493 -.00000059  00000+0  28494-5 0  9993
2 55959  69.9990 144.1366 0002366 265.4612  94.6277 14.98341018150230
STARLINK-5938           
1 55960U 23037AY  25338.63714653  .00000608  00000+0  58713-4 0  9997
2 55960  69.9994 144.1620 0002977 271.8594  88.2224 14.98336533150234
STARLINK-5933           
1 55961U 23037AZ  25338.61194361 -.00000500  00000+0 -34100-4 0  9991
2 55961  69.9994 144.0932 0002805 270.3330  89.7508 14.98328582150238
STARLINK-5906           
1 55962U 23037BA  25338.64950376  .00000510  00000+0  50514-4 0  9997
2 55962  69.9994 144.2187 0002905 269.4034  90.6792 14.98336110150236
STARLINK-5924           
1 55963U 23037BB  25338.62028735  .00000228  00000+0  26936-4 0  9998
2 55963  69.9987 144.1228 0003303 271.0103  89.0677 14.98331635150234
STARLINK-5895           
1 55964U 23037BC  25338.63998028  .00020839  00000+0  15333-2 0  9998
2 55964  69.9978 142.9333 0001265 323.9219  36.1857 15.03368163150267
STARLINK-5894           
1 55965U 23037BD  25338.60358682  .00000633  00000+0  60873-4 0  9993
2 55965  69.9988 144.0635 0002985 273.3249  86.7569 14.98336242150232
STARLINK-5905           
1 55986U 23042A   25338.01085556  .00005394  00000+0  41400-3 0  9997
2 55986  43.0030 216.3666 0001395 275.6620  84.4063 15.02539665149338
STARLINK-5915           
1 55987U 23042B   25337.99309270 -.00000096  00000+0  79929-5 0  9990
2 55987  43.0013 216.2273 0001189 270.4201  89.6505 15.02535186148513
STARLINK-5916           
1 55988U 23042C   25338.63677864  .00001406  00000+0  11912-3 0  9991
2 55988  43.0023 212.4702 0001234 267.3030  92.7671 15.02539629148612
STARLINK-5947           
1 55989U 23042D   25338.66454003  .00001914  00000+0  15678-3 0  9990
2 55989  43.0052 212.6704 0001680 271.7244  88.3406 15.02524374148618
STARLINK-5946           
1 55990U 23042E   25338.07401004 -.00001708  00000+0 -11138-3 0  9990
2 55990  43.0030 215.9799 0001117 274.7139  85.3576 15.02542872148525
STARLINK-5948           
1 55991U 23042F   25338.38307586 -.00000183  00000+0  15453-5 0  9996
2 55991  43.0029 213.9951 0001308 268.0104  92.0589 15.02540197148574
STARLINK-5969           
1 55993U 23042H   25338.06956252 -.00000518  00000+0 -23286-4 0  9998
2 55993  43.0026 215.9434 0001120 276.2032  83.8683 15.02535004148523
STARLINK-5956           
1 55994U 23042J   25338.38971579  .00003031  00000+0  23925-3 0  9993
2 55994  43.0022 214.0459 0001185 265.1119  94.9588 15.02554428148574
STARLINK-5957           
1 55995U 23042K   25338.66668981  .01246555  00000+0  66280-2 0  9996
2 55995  42.9958 199.9915 0002471 259.6318  12.0604 15.77206629  5859
STARLINK-5903           
1 55996U 23042L   25338.64233253  .00001460  00000+0  12314-3 0  9998
2 55996  43.0056 212.5027 0001294 275.6055  84.4640 15.02526458148613
STARLINK-5902           
1 55998U 23042N   25338.37201847 -.00005398  00000+0 -38528-3 0  9995
2 55998  43.0071 213.9117 0000995 266.8248  93.2480 15.02494344148573
STARLINK-5901           
1 55999U 23042P   25338.37975047  .00003071  00000+0  24231-3 0  9996
2 55999  43.0027 213.9705 0001189 273.1827  86.8879 15.02537998148571
STARLINK-5910           
1 56000U 23042Q   25338.09385437 -.00001570  00000+0 -10112-3 0  9994
2 56000  43.0034 215.2624 0001435 274.2376  85.8303 15.02546625148537
STARLINK-5944           
1 56001U 23042R   25337.96978157 -.00000296  00000+0 -68115-5 0  9999
2 56001  43.0035 216.0479 0001171 266.1864  93.8844 15.02535991148516
STARLINK-5799           
1 56002U 23042S   25338.36309676  .00001179  00000+0  10231-3 0  9992
2 56002  43.0025 213.8434 0001207 266.7157  93.3547 15.02540777148572
STARLINK-5789           
1 56003U 23042T   25338.64121262  .00000713  00000+0  67805-4 0  9990
2 56003  43.0029 212.4913 0001164 265.0265  95.0445 15.02545112148617
STARLINK-5787           
1 56004U 23042U   25338.35644489  .00000204  00000+0  30163-4 0  9992
2 56004  43.0029 213.7932 0001061 263.0623  97.0099 15.02534944148578
STARLINK-5801           
1 56005U 23042V   25338.36642736 -.00000631  00000+0 -31628-4 0  9990
2 56005  43.0032 213.8701 0001171 265.8270  94.2438 15.02547301148575
STARLINK-5794           
1 56006U 23042W   25338.08608288  .00002496  00000+0  19978-3 0  9996
2 56006  43.0039 215.2024 0001195 274.7288  85.3418 15.02542838148536
STARLINK-5806           
1 56007U 23042X   25338.35533141  .00001007  00000+0  89626-4 0  9997
2 56007  43.0030 213.7850 0001303 268.8205  91.2488 15.02537924148579
STARLINK-5803           
1 56008U 23042Y   25338.67007094  .00000696  00000+0  66589-4 0  9992
2 56008  43.0031 212.6911 0001236 262.1233  97.9469 15.02542331148604
STARLINK-5964           
1 56009U 23042Z   25337.95424875  .00000357  00000+0  41476-4 0  9995
2 56009  43.0027 215.9396 0001156 257.1825 102.8888 15.02534655148516
STARLINK-5968           
1 56010U 23042AA  25338.34866557  .00000262  00000+0  34451-4 0  9998
2 56010  43.0032 213.7305 0001480 261.6033  98.4642 15.02536897148575
STARLINK-5936           
1 56011U 23042AB  25338.61272923 -.00001301  00000+0 -81203-4 0  9991
2 56011  43.0019 200.1266 0001304 267.1118  92.9575 15.02553114148752
STARLINK-5940           
1 56012U 23042AC  25338.61828520  .00000204  00000+0  30150-4 0  9996
2 56012  43.0015 200.1662 0000684 244.1975 115.8797 15.02537349148758
STARLINK-5941           
1 56013U 23042AD  25338.01295155  .00000664  00000+0  64218-4 0  9995
2 56013  43.0025 215.5130 0001203 270.3942  89.6762 15.02537001148523
STARLINK-5942           
1 56014U 23042AE  25338.67810181  .00001292  00000+0  11069-3 0  9993
2 56014  43.0023 199.7512 0001238 264.3002  95.7699 15.02537786148760
STARLINK-5939           
1 56015U 23042AF  25338.34905051  .00000918  00000+0  83036-4 0  9997
2 56015  43.0027 201.5874 0001142 266.4864  93.5848 15.02536641148717
STARLINK-5943           
1 56016U 23042AG  25338.66145388  .00000433  00000+0  47117-4 0  9994
2 56016  43.0034 199.6270 0001066 276.0156  84.0565 15.02537137148766
STARLINK-5934           
1 56017U 23042AH  25338.34016398  .00000901  00000+0  81738-4 0  9995
2 56017  43.0024 201.5197 0001102 267.3391  92.7325 15.02540107148718
STARLINK-5945           
1 56018U 23042AJ  25338.66256789  .00000975  00000+0  87234-4 0  9999
2 56018  43.0027 199.6364 0001375 267.2630  92.8055 15.02549003148762
STARLINK-5949           
1 56019U 23042AK  25338.67587675  .00001110  00000+0  97181-4 0  9996
2 56019  43.0017 199.7376 0000995 268.6901  91.3828 15.02543686148762
STARLINK-5912           
1 56020U 23042AL  25338.66588944  .00000307  00000+0  37797-4 0  9991
2 56020  43.0036 199.6624 0001077 270.2670  89.8049 15.02538898148760
STARLINK-5907           
1 56021U 23042AM  25338.33683103  .00001337  00000+0  11404-3 0  9999
2 56021  43.0005 201.4935 0000999 270.6786  89.3941 15.02538971148711
STARLINK-5783           
1 56022U 23042AN  25338.32018301  .00000417  00000+0  45969-4 0  9993
2 56022  43.0034 201.3662 0001170 261.1550  98.9160 15.02538731148719
STARLINK-5771           
1 56023U 23042AP  25338.65812015  .00000482  00000+0  50720-4 0  9997
2 56023  43.0022 199.5996 0001008 274.2471  85.8256 15.02540454148763
STARLINK-5772           
1 56024U 23042AQ  25338.04428513  .00000438  00000+0  47465-4 0  9990
2 56024  43.0023 202.7370 0000953 286.2912  73.7826 15.02537158148675
STARLINK-5766           
1 56025U 23042AR  25338.02109471  .00000358  00000+0  41574-4 0  9994
2 56025  43.0019 203.4143 0001148 272.9623  87.1088 15.02537159148664
STARLINK-5770           
1 56026U 23042AS  25338.65146240  .00000556  00000+0  56211-4 0  9993
2 56026  43.0032 199.5517 0001109 265.5546  94.5170 15.02539187148767
STARLINK-5777           
1 56027U 23042AT  25338.65479377  .00000723  00000+0  68598-4 0  9991
2 56027  43.0032 199.5762 0001213 267.9902  92.0801 15.02537044148762
STARLINK-5779           
1 56028U 23042AU  25338.63814960  .00001446  00000+0  12214-3 0  9997
2 56028  43.0035 199.4501 0001154 275.5386  84.5325 15.02522717148769
STARLINK-5774           
1 56029U 23042AV  25338.31575384  .00000649  00000+0  63119-4 0  9992
2 56029  43.0008 201.3346 0000867 277.4793  82.5951 15.02536017148719
STARLINK-5781           
1 56030U 23042AW  25338.63482199 -.00000288  00000+0 -62561-5 0  9992
2 56030  43.0025 199.4257 0001226 270.1122  89.9580 15.02532485148763
STARLINK-5785           
1 56031U 23042AX  25337.04600686  .00000071  00000+0  20331-4 0  9996
2 56031  43.0026 208.1445 0001242 265.2282  94.8419 15.02538017148529
STARLINK-5786           
1 56032U 23042AY  25338.02763769 -.00000238  00000+0 -25501-5 0  9990
2 56032  43.0020 202.6086 0001158 266.2395  93.8315 15.02538644148672
STARLINK-5782           
1 56034U 23042BA  25338.62482409  .00000460  00000+0  49142-4 0  9998
2 56034  43.0014 199.3486 0001070 263.9119  96.1601 15.02539087148760
STARLINK-5792           
1 56035U 23042BB  25338.03429234  .00000921  00000+0  83264-4 0  9996
2 56035  43.0023 202.6586 0001150 268.5099  91.5611 15.02537694148679
STARLINK-5790           
1 56036U 23042BC  25338.62815391 -.00001198  00000+0 -73579-4 0  9992
2 56036  43.0023 199.3713 0000929 270.5259  89.5477 15.02546093148768
